NORAD_CAT_ID,OBJECT_NAME,OBJECT_TYPE,EPOCH,MEAN_MOTION,ECCENTRICITY,INCLINATION,RA_OF_ASC_NODE,ARG_OF_PERICENTER,MEAN_ANOMALY,BSTAR,MEAN_MOTION_DOT,MEAN_MOTION_DDOT,TLE_LINE0,TLE_LINE1,TLE_LINE2,SEMIMAJOR_AXIS,PERIOD,APOGEE,PERIGEE,DECAYED
54793.0,STARLINK-5433,PAYLOAD,2023-06-08 09:17:41,15.08834888,9.64e-05,53.2167,212.1112,82.1024,278.0078,3.2168e-05,2.24e-06,0.0,0 STARLINK-5433,1 54793U 22175AM  23159.38728100  .00000224  00000-0  32168-4 0  9996,2 54793  53.2167 212.1112 0000964  82.1024 278.0078 15.08834888 26340,6917.896,95.438,540.428,539.094,0.0
54793.0,STARLINK-5433,PAYLOAD,2023-06-08 10:53:03,15.08853909,9.02e-05,53.2166,211.8137,77.2046,282.9046,-0.00020033,-3.476e-05,0.0,0 STARLINK-5433,1 54793U 22175AM  23159.45351751 -.00003476  00000-0 -20033-3 0  9999,2 54793  53.2166 211.8137 0000902  77.2046 282.9046 15.08853909 28518,6917.838,95.437,540.327,539.079,0.0
54793.0,STARLINK-5433,PAYLOAD,2023-06-08 20:25:23,15.08837048,9.61e-05,53.2166,210.0297,81.6777,278.4324,2.7481e-05,1.5e-06,0.0,0 STARLINK-5433,1 54793U 22175AM  23159.85096074  .00000150  00000-0  27481-4 0  9996,2 54793  53.2166 210.0297 0000961  81.6777 278.4324 15.08837048 26413,6917.889,95.438,540.419,539.09,0.0
54793.0,STARLINK-5433,PAYLOAD,2023-06-09 12:19:14,15.08839824,9.34e-05,53.2163,207.0555,81.4657,278.6441,1.5497e-05,-4.1e-07,0.0,0 STARLINK-5433,1 54793U 22175AM  23160.51336028 -.00000041  00000-0  15497-4 0  9991,2 54793  53.2163 207.0555 0000934  81.4657 278.6441 15.08839824 28674,6917.881,95.438,540.392,539.1,0.0
54793.0,STARLINK-5433,PAYLOAD,2023-06-10 02:37:42,15.08834986,9.4e-05,53.216,204.3793,81.054,279.0559,1.69e-05,-1.9e-07,0.0,0 STARLINK-5433,1 54793U 22175AM  23161.10952387 -.00000019  00000-0  16900-4 0  9994,2 54793  53.2160 204.3793 0000940  81.0540 279.0559 15.08834986 26609,6917.896,95.438,540.411,539.11,0.0
54793.0,STARLINK-5433,PAYLOAD,2023-06-10 12:10:01,15.08837121,8.83e-05,53.2157,202.5949,82.1201,277.9892,-3.778e-06,-3.48e-06,0.0,0 STARLINK-5433,1 54793U 22175AM  23161.50696395 -.00000348  00000-0 -37780-5 0  9998,2 54793  53.2157 202.5949 0000883  82.1201 277.9892 15.08837121 28827,6917.889,95.438,540.365,539.143,0.0
54793.0,STARLINK-5433,PAYLOAD,2023-06-10 20:06:57,15.08839236,9.09e-05,53.216,201.1083,81.512,278.5975,1.5592e-05,-4e-07,0.0,0 STARLINK-5433,1 54793U 22175AM  23161.83816208 -.00000040  00000-0  15592-4 0  9995,2 54793  53.2160 201.1083 0000909  81.5120 278.5975 15.08839236 28870,6917.883,95.438,540.377,539.119,0.0
54793.0,STARLINK-5433,PAYLOAD,2023-06-11 08:50:02,15.08841225,9.16e-05,53.2159,198.7294,81.3083,278.8013,3.7358e-05,3.07e-06,0.0,0 STARLINK-5433,1 54793U 22175AM  23162.36807981  .00000307  00000-0  37358-4 0  9991,2 54793  53.2159 198.7294 0000916  81.3083 278.8013 15.08841225 26793,6917.877,95.437,540.375,539.108,0.0
54793.0,STARLINK-5433,PAYLOAD,2023-06-11 12:00:48,15.0884209,9.21e-05,53.216,198.1344,83.8516,276.2581,2.9614e-05,1.84e-06,0.0,0 STARLINK-5433,1 54793U 22175AM  23162.50055934  .00000184  00000-0  29614-4 0  9999,2 54793  53.2160 198.1344 0000921  83.8516 276.2581 15.08842090 28974,6917.874,95.437,540.376,539.102,0.0
54793.0,STARLINK-5433,PAYLOAD,2023-06-11 19:57:43,15.08841044,9.02e-05,53.216,196.6472,86.404,273.7055,4.4376e-05,4.19e-06,0.0,0 STARLINK-5433,1 54793U 22175AM  23162.83175878  .00000419  00000-0  44376-4 0  9998,2 54793  53.2160 196.6472 0000902  86.4040 273.7055 15.08841044 29022,6917.877,95.437,540.366,539.118,0.0
54793.0,STARLINK-5433,PAYLOAD,2023-06-12 08:40:49,15.0884044,9.03e-05,53.2161,194.2683,85.298,274.8115,3.205e-05,2.22e-06,0.0,0 STARLINK-5433,1 54793U 22175AM  23163.36167910  .00000222  00000-0  32050-4 0  9993,2 54793  53.2161 194.2683 0000903  85.2980 274.8115 15.08840440 29109,6917.879,95.438,540.369,539.119,0.0
54793.0,STARLINK-5433,PAYLOAD,2023-06-13 02:10:04,15.08836101,9.34e-05,53.2158,190.9972,86.2389,273.8709,-3.8614e-05,-9.02e-06,0.0,0 STARLINK-5433,1 54793U 22175AM  23164.09032469 -.00000902  00000-0 -38614-4 0  9993,2 54793  53.2158 190.9972 0000934  86.2389 273.8709 15.08836101 27056,6917.892,95.438,540.403,539.111,0.0
54793.0,STARLINK-5433,PAYLOAD,2023-06-13 06:56:13,15.08834348,9.49e-05,53.2161,190.105,87.0551,273.055,-5.175e-05,-1.111e-05,0.0,0 STARLINK-5433,1 54793U 22175AM  23164.28904655 -.00001111  00000-0 -51750-4 0  9998,2 54793  53.2161 190.1050 0000949  87.0551 273.0550 15.08834348 29245,6917.898,95.438,540.419,539.106,0.0
54793.0,STARLINK-5433,PAYLOAD,2023-06-14 02:00:51,15.08836768,9.58e-05,53.2163,186.5367,85.6399,274.4703,-2.2778e-05,-6.5e-06,0.0,0 STARLINK-5433,1 54793U 22175AM  23165.08392538 -.00000650  00000-0 -22778-4 0  9993,2 54793  53.2163 186.5367 0000958  85.6399 274.4703 15.08836768 29367,6917.89,95.438,540.418,539.093,0.0
54793.0,STARLINK-5433,PAYLOAD,2023-06-14 17:54:42,15.08836624,9.32e-05,53.2158,183.5628,81.7716,278.3382,1.1401e-05,-1.06e-06,0.0,0 STARLINK-5433,1 54793U 22175AM  23165.74632535 -.00000106  00000-0  11401-4 0  9996,2 54793  53.2158 183.5628 0000932  81.7716 278.3382 15.08836624 27309,6917.891,95.438,540.4,539.111,0.0
54793.0,STARLINK-5433,PAYLOAD,2023-06-15 06:37:47,15.08832113,9.69e-05,53.2166,181.1849,89.9328,270.1775,3.3257e-05,2.41e-06,0.0,0 STARLINK-5433,1 54793U 22175AM  23166.27624921  .00000241  00000-0  33257-4 0  9997,2 54793  53.2166 181.1849 0000969  89.9328 270.1775 15.08832113 29549,6917.904,95.438,540.44,539.099,0.0
54793.0,STARLINK-5433,PAYLOAD,2023-06-15 17:45:29,15.08834317,9.73e-05,53.2166,179.1034,88.2856,271.8247,2.4891e-05,1.08e-06,0.0,0 STARLINK-5433,1 54793U 22175AM  23166.73992988  .00000108  00000-0  24891-4 0  9995,2 54793  53.2166 179.1034 0000973  88.2856 271.8247 15.08834317 29613,6917.898,95.438,540.436,539.09,0.0
54793.0,STARLINK-5433,PAYLOAD,2023-06-16 01:42:25,15.08838222,9.54e-05,53.2164,177.6163,87.4325,272.6776,1.9602e-05,2.4e-07,0.0,0 STARLINK-5433,1 54793U 22175AM  23167.07112832  .00000024  00000-0  19602-4 0  9996,2 54793  53.2164 177.6163 0000954  87.4325 272.6776 15.08838222 27509,6917.886,95.438,540.411,539.091,0.0
54793.0,STARLINK-5433,PAYLOAD,2023-06-16 08:03:57,15.08839908,9.66e-05,53.2162,176.4268,86.9563,273.154,3.302e-05,2.38e-06,0.0,0 STARLINK-5433,1 54793U 22175AM  23167.33608694  .00000238  00000-0  33020-4 0  9998,2 54793  53.2162 176.4268 0000966  86.9563 273.1540 15.08839908 29702,6917.881,95.438,540.414,539.077,0.0
54793.0,STARLINK-5433,PAYLOAD,2023-06-16 17:36:16,15.08838999,9.67e-05,53.2163,174.6427,85.4431,274.6671,3.2377e-05,2.28e-06,0.0,0 STARLINK-5433,1 54793U 22175AM  23167.73352746  .00000228  00000-0  32377-4 0  9999,2 54793  53.2163 174.6427 0000967  85.4431 274.6671 15.08838999 29765,6917.883,95.438,540.417,539.079,0.0
54793.0,STARLINK-5433,PAYLOAD,2023-06-17 06:19:21,15.08838855,9.74e-05,53.2161,172.2634,84.3291,275.7812,3.8315e-05,3.22e-06,0.0,0 STARLINK-5433,1 54793U 22175AM  23168.26344754  .00000322  00000-0  38315-4 0  9991,2 54793  53.2161 172.2634 0000974  84.3291 275.7812 15.08838855 27686,6917.884,95.438,540.423,539.075,0.0
54793.0,STARLINK-5433,PAYLOAD,2023-06-17 07:54:44,15.08839097,9.8e-05,53.2162,171.9661,84.4012,275.7091,3.916e-05,3.36e-06,0.0,0 STARLINK-5433,1 54793U 22175AM  23168.32968737  .00000336  00000-0  39160-4 0  9995,2 54793  53.2162 171.9661 0000980  84.4012 275.7091 15.08839097 29851,6917.883,95.438,540.426,539.07,0.0
54793.0,STARLINK-5433,PAYLOAD,2023-06-17 17:27:03,15.08837503,9.89e-05,53.2162,170.182,83.5102,276.6002,1.467e-05,-5.4e-07,0.0,0 STARLINK-5433,1 54793U 22175AM  23168.72712932 -.00000054  00000-0  14670-4 0  9990,2 54793  53.2162 170.1820 0000989  83.5102 276.6002 15.08837503 29917,6917.888,95.438,540.437,539.069,0.0
54793.0,STARLINK-5433,PAYLOAD,2023-06-18 06:10:09,15.08836051,0.0001012,53.2162,167.8033,83.7271,276.3836,-2.0358e-05,-6.12e-06,0.0,0 STARLINK-5433,1 54793U 22175AM  23169.25705212 -.00000612  00000-0 -20358-4 0  9993,2 54793  53.2162 167.8033 0001012  83.7271 276.3836 15.08836051 29990,6917.892,95.438,540.458,539.057,0.0
54793.0,STARLINK-5433,PAYLOAD,2023-06-18 17:17:50,15.08839771,0.0001027,53.2163,165.7218,83.2243,276.8866,3.2363e-06,-2.36e-06,0.0,0 STARLINK-5433,1 54793U 22175AM  23169.72072905 -.00000236  00000-0  32363-5 0  9992,2 54793  53.2163 165.7218 0001027  83.2243 276.8866 15.08839771 27902,6917.881,95.438,540.457,539.036,0.0
54793.0,STARLINK-5433,PAYLOAD,2023-06-19 09:11:41,15.08843616,0.0001041,53.2162,162.7478,84.0677,276.0434,3.9821e-05,3.46e-06,0.0,0 STARLINK-5433,1 54793U 22175AM  23170.38312433  .00000346  00000-0  39821-4 0  9995,2 54793  53.2162 162.7478 0001041  84.0677 276.0434 15.08843616 30160,6917.869,95.437,540.454,539.014,0.0
54793.0,STARLINK-5433,PAYLOAD,2023-06-19 17:08:38,15.0883768,0.0001043,53.2161,161.2603,86.1948,273.9164,7.889e-06,-1.62e-06,0.0,0 STARLINK-5433,1 54793U 22175AM  23170.71432874 -.00000162  00000-0  78890-5 0  9991,2 54793  53.2161 161.2603 0001043  86.1948 273.9164 15.08837680 30215,6917.887,95.438,540.474,539.031,0.0
54793.0,STARLINK-5433,PAYLOAD,2023-06-20 05:51:43,15.08831968,0.0001066,53.216,158.8816,85.8944,274.217,-1.5842e-05,-5.4e-06,0.0,0 STARLINK-5433,1 54793U 22175AM  23171.24425441 -.00000540  00000-0 -15842-4 0  9990,2 54793  53.2160 158.8816 0001066  85.8944 274.2170 15.08831968 28131,6917.905,95.438,540.507,539.032,0.0
54793.0,STARLINK-5433,PAYLOAD,2023-06-21 02:31:44,15.08839898,0.0001118,53.216,155.0157,87.0974,273.0146,-1.1398e-05,-4.69e-06,0.0,0 STARLINK-5433,1 54793U 22175AM  23172.10537052 -.00000469  00000-0 -11398-4 0  9990,2 54793  53.2160 155.0157 0001118  87.0974 273.0146 15.08839898 28267,6917.881,95.438,540.519,538.972,0.0
54793.0,STARLINK-5433,PAYLOAD,2023-06-21 04:07:07,15.0883999,0.0001117,53.216,154.7184,87.0064,273.1056,-9.6445e-06,-4.41e-06,0.0,0 STARLINK-5433,1 54793U 22175AM  23172.17161045 -.00000441  00000-0 -96445-5 0  9999,2 54793  53.2160 154.7184 0001117  87.0064 273.1056 15.08839990 30438,6917.88,95.438,540.518,538.973,0.0
